NORAD_CAT_ID,OBJECT_NAME,OBJECT_TYPE,EPOCH,MEAN_MOTION,ECCENTRICITY,INCLINATION,RA_OF_ASC_NODE,ARG_OF_PERICENTER,MEAN_ANOMALY,BSTAR,MEAN_MOTION_DOT,MEAN_MOTION_DDOT,TLE_LINE0,TLE_LINE1,TLE_LINE2,SEMIMAJOR_AXIS,PERIOD,APOGEE,PERIGEE,DECAYED
54771.0,STARLINK-5451,PAYLOAD,2023-08-25 06:32:41,15.08842348,0.0001365,53.2166,242.2576,91.7944,268.3205,7.133e-05,8.48e-06,0.0,0 STARLINK-5451,1 54771U 22175P   23237.27269766  .00000848  00000-0  71330-4 0  9991,2 54771  53.2166 242.2576 0001365  91.7944 268.3205 15.08842348 39984,6917.873,95.437,540.683,538.794,0.0
54771.0,STARLINK-5451,PAYLOAD,2023-08-26 09:34:14,15.08842242,0.0001415,53.2166,237.2027,84.5396,275.5757,8.88e-05,1.126e-05,0.0,0 STARLINK-5451,1 54771U 22175P   23238.39877738  .00001126  00000-0  88800-4 0  9999,2 54771  53.2166 237.2027 0001415  84.5396 275.5757 15.08842242 37990,6917.874,95.437,540.717,538.76,0.0
54771.0,STARLINK-5451,PAYLOAD,2023-08-27 09:25:01,15.08843222,0.0001385,53.2163,232.7413,91.6781,268.437,3.8713e-05,3.28e-06,0.0,0 STARLINK-5451,1 54771U 22175P   23239.39237683  .00000328  00000-0  38713-4 0  9990,2 54771  53.2163 232.7413 0001385  91.6781 268.4370 15.08843222 40309,6917.871,95.437,540.694,538.777,0.0
54771.0,STARLINK-5451,PAYLOAD,2023-08-27 23:43:29,15.08836531,0.0001486,53.2166,230.0635,99.3093,260.8067,1.4158e-05,-6.3e-07,0.0,0 STARLINK-5451,1 54771U 22175P   23239.98854151 -.00000063  00000-0  14158-4 0  9994,2 54771  53.2166 230.0635 0001486  99.3093 260.8067 15.08836531 38235,6917.891,95.438,540.784,538.728,0.0
54771.0,STARLINK-5451,PAYLOAD,2023-08-28 09:15:48,15.08837142,0.0001343,53.2164,228.2809,91.2702,268.8444,1.7645e-05,-7e-08,0.0,0 STARLINK-5451,1 54771U 22175P   23240.38598164 -.00000007  00000-0  17645-4 0  9991,2 54771  53.2164 228.2809 0001343  91.2702 268.8444 15.08837142 40458,6917.889,95.438,540.683,538.825,0.0
54771.0,STARLINK-5451,PAYLOAD,2023-08-29 07:31:12,15.08841823,0.0001322,53.2165,224.1183,90.56,269.5544,7.4308e-05,8.95e-06,0.0,0 STARLINK-5451,1 54771U 22175P   23241.31333783  .00000895  00000-0  74308-4 0  9992,2 54771  53.2165 224.1183 0001322  90.5600 269.5544 15.08841823 38430,6917.875,95.437,540.654,538.825,0.0
54771.0,STARLINK-5451,PAYLOAD,2023-08-29 23:25:04,15.08831694,0.0001336,53.2168,221.1452,90.6325,269.482,1.4936e-05,-5e-07,0.0,0 STARLINK-5451,1 54771U 22175P   23241.97574809 -.00000050  00000-0  14936-4 0  9995,2 54771  53.2168 221.1452 0001336  90.6325 269.4820 15.08831694 38531,6917.906,95.438,540.695,538.847,0.0
54771.0,STARLINK-5451,PAYLOAD,2023-08-30 15:18:55,15.08837147,0.0001367,53.2175,218.1729,94.0765,266.0383,-3.7881e-06,-3.48e-06,0.0,0 STARLINK-5451,1 54771U 22175P   23242.63814736 -.00000348  00000-0 -37881-5 0  9991,2 54771  53.2175 218.1729 0001367  94.0765 266.0383 15.08837147 40799,6917.889,95.438,540.7,538.808,0.0
54771.0,STARLINK-5451,PAYLOAD,2023-08-31 08:48:10,15.0884277,0.0001114,53.2168,214.9004,98.4064,261.7055,4.0535e-05,3.57e-06,0.0,0 STARLINK-5451,1 54771U 22175P   23243.36678329  .00000357  00000-0  40535-4 0  9995,2 54771  53.2168 214.9004 0001114  98.4064 261.7055 15.08842770 38749,6917.872,95.437,540.508,538.966,0.0
54771.0,STARLINK-5451,PAYLOAD,2023-09-01 07:03:34,15.08839492,0.0001029,53.2171,210.737,113.5738,246.5363,3.7991e-05,3.17e-06,0.0,0 STARLINK-5451,1 54771U 22175P   23244.29414701  .00000317  00000-0  37991-4 0  9998,2 54771  53.2171 210.7370 0001029 113.5738 246.5363 15.08839492 38880,6917.882,95.438,540.459,539.035,0.0
54771.0,STARLINK-5451,PAYLOAD,2023-09-01 15:00:29,15.08846336,0.0001343,53.2172,209.2501,88.8726,271.242,-3.003e-05,-7.66e-06,0.0,0 STARLINK-5451,1 54771U 22175P   23244.62534664 -.00000766  00000-0 -30030-4 0  9993,2 54771  53.2172 209.2501 0001343  88.8726 271.2420 15.08846336 41091,6917.861,95.437,540.655,538.797,0.0
54771.0,STARLINK-5451,PAYLOAD,2023-09-02 06:54:21,15.08845674,0.0001362,53.2159,206.2764,89.1273,270.9875,0.00010685,1.413e-05,0.0,0 STARLINK-5451,1 54771U 22175P   23245.28774336  .00001413  00000-0  10685-3 0  9999,2 54771  53.2159 206.2764 0001362  89.1273 270.9875 15.08845674 41191,6917.863,95.437,540.67,538.786,0.0
54771.0,STARLINK-5451,PAYLOAD,2023-09-02 14:51:16,15.08841492,0.0001227,53.2155,204.7889,90.63,269.4832,6.9888e-05,8.25e-06,0.0,0 STARLINK-5451,1 54771U 22175P   23245.61894628  .00000825  00000-0  69888-4 0  9999,2 54771  53.2155 204.7889 0001227  90.6300 269.4832 15.08841492 39081,6917.876,95.437,540.59,538.892,0.0
54771.0,STARLINK-5451,PAYLOAD,2023-09-03 03:34:22,15.08839781,0.0001137,53.2188,202.4097,92.2974,267.8148,1.9235e-05,1.8e-07,0.0,0 STARLINK-5451,1 54771U 22175P   23246.14886923  .00000018  00000-0  19235-4 0  9992,2 54771  53.2188 202.4097 0001137  92.2974 267.8148 15.08839781 41328,6917.881,95.438,540.533,538.959,0.0
54771.0,STARLINK-5451,PAYLOAD,2023-09-03 14:42:04,15.08829469,0.000134,53.2172,200.3286,90.7715,269.343,0.00010161,1.329e-05,0.0,0 STARLINK-5451,1 54771U 22175P   23246.61255425  .00001329  00000-0  10161-3 0  9995,2 54771  53.2172 200.3286 0001340  90.7715 269.3430 15.08829469 39230,6917.913,95.438,540.705,538.851,0.0
54771.0,STARLINK-5451,PAYLOAD,2023-09-04 00:14:23,15.08839485,0.000138,53.2166,198.546,90.3488,269.7663,-2.316e-05,-6.56e-06,0.0,0 STARLINK-5451,1 54771U 22175P   23247.00999189 -.00000656  00000-0 -23160-4 0  9999,2 54771  53.2166 198.5460 0001380  90.3488 269.7663 15.08839485 39299,6917.882,95.438,540.702,538.792,0.0
54771.0,STARLINK-5451,PAYLOAD,2023-09-04 06:35:55,15.08839253,0.0001502,53.2169,197.3546,99.9126,260.2036,4.9351e-05,4.98e-06,0.0,0 STARLINK-5451,1 54771U 22175P   23247.27494980  .00000498  00000-0  49351-4 0  9999,2 54771  53.2169 197.3546 0001502  99.9126 260.2036 15.08839253 41492,6917.883,95.438,540.787,538.709,0.0
54771.0,STARLINK-5451,PAYLOAD,2023-09-05 06:26:42,15.08826604,0.0001368,53.217,192.8944,107.4603,252.6539,0.00022134,3.235e-05,0.0,0 STARLINK-5451,1 54771U 22175P   23248.26855268  .00003235  00000-0  22134-3 0  9990,2 54771  53.2170 192.8944 0001368 107.4603 252.6539 15.08826604 39486,6917.921,95.438,540.733,538.84,0.0
54771.0,STARLINK-5451,PAYLOAD,2023-09-06 06:17:29,15.08842892,0.0001338,53.217,188.4339,96.269,263.8455,6.3665e-05,7.26e-06,0.0,0 STARLINK-5451,1 54771U 22175P   23249.26214917  .00000726  00000-0  63665-4 0  9998,2 54771  53.2170 188.4339 0001338  96.2690 263.8455 15.08842892 39638,6917.872,95.437,540.662,538.811,0.0
54771.0,STARLINK-5451,PAYLOAD,2023-09-07 02:57:31,15.08837594,0.0001349,53.2175,184.5682,83.1893,276.9253,-1.0284e-05,-4.52e-06,0.0,0 STARLINK-5451,1 54771U 22175P   23250.12327671 -.00000452  00000-0 -10284-4 0  9994,2 54771  53.2175 184.5682 0001349  83.1893 276.9253 15.08837594 39761,6917.888,95.438,540.686,538.82,0.0
54771.0,STARLINK-5451,PAYLOAD,2023-09-07 04:32:54,15.08837467,0.0001356,53.2175,184.2709,83.1416,276.973,-1.1331e-05,-4.68e-06,0.0,0 STARLINK-5451,1 54771U 22175P   23250.18951689 -.00000468  00000-0 -11331-4 0  9993,2 54771  53.2175 184.2709 0001356  83.1416 276.9730 15.08837467 41938,6917.888,95.438,540.691,538.815,0.0
54771.0,STARLINK-5451,PAYLOAD,2023-09-08 05:59:04,15.08841959,0.0001439,53.2176,179.5133,83.0622,277.0534,9.3497e-05,1.2e-05,0.0,0 STARLINK-5451,1 54771U 22175P   23251.24935193  .00001200  00000-0  93497-4 0  9999,2 54771  53.2176 179.5133 0001439  83.0622 277.0534 15.08841959 39939,6917.874,95.437,540.735,538.744,0.0
54771.0,STARLINK-5451,PAYLOAD,2023-09-09 12:11:24,15.08830607,0.0001679,53.2178,173.8632,79.8823,280.2359,0.00015317,2.15e-05,0.0,0 STARLINK-5451,1 54771U 22175P   23252.50792184  .00002150  00000-0  15317-3 0  9999,2 54771  53.2178 173.8632 0001679  79.8823 280.2359 15.08830607 42285,6917.909,95.438,540.936,538.613,0.0
54771.0,STARLINK-5451,PAYLOAD,2023-09-09 18:32:56,15.08840411,0.0001448,53.2175,172.6755,82.9019,277.2138,-2.2094e-05,-6.4e-06,0.0,0 STARLINK-5451,1 54771U 22175P   23252.77288071 -.00000640  00000-0 -22094-4 0  9998,2 54771  53.2175 172.6755 0001448  82.9019 277.2138 15.08840411 40161,6917.879,95.438,540.746,538.742,0.0
54771.0,STARLINK-5451,PAYLOAD,2023-09-10 04:05:15,15.08841112,0.0001563,53.2173,170.8922,82.7415,277.3755,4.2797e-05,3.93e-06,0.0,0 STARLINK-5451,1 54771U 22175P   23253.17031800  .00000393  00000-0  42797-4 0  9994,2 54771  53.2173 170.8922 0001563  82.7415 277.3755 15.08841112 42382,6917.877,95.437,540.823,538.661,0.0
54771.0,STARLINK-5451,PAYLOAD,2023-09-11 00:45:16,15.08840709,0.0001511,53.2171,167.0265,82.0561,278.0603,1.5507e-05,-4.1e-07,0.0,0 STARLINK-5451,1 54771U 22175P   23254.03143968 -.00000041  00000-0  15507-4 0  9999,2 54771  53.2171 167.0265 0001511  82.0561 278.0603 15.08840709 40352,6917.878,95.438,540.789,538.698,0.0
54771.0,STARLINK-5451,PAYLOAD,2023-09-11 11:52:58,15.08843595,0.0001418,53.2168,164.9441,84.3931,275.7223,-8.0587e-06,-4.16e-06,0.0,0 STARLINK-5451,1 54771U 22175P   23254.49511749 -.00000416  00000-0 -80587-5 0  9993,2 54771  53.2168 164.9441 0001418  84.3931 275.7223 15.08843595 42587,6917.869,95.437,540.715,538.753,0.0
54771.0,STARLINK-5451,PAYLOAD,2023-09-12 03:46:49,15.08843667,0.0001344,53.2166,161.9684,98.7135,261.4009,6.7228e-05,7.82e-06,0.0,0 STARLINK-5451,1 54771U 22175P   23255.15751477  .00000782  00000-0  67228-4 0  9991,2 54771  53.2166 161.9684 0001344  98.7135 261.4009 15.08843667 40520,6917.869,95.437,540.664,538.804,0.0
54771.0,STARLINK-5451,PAYLOAD,2023-09-12 18:05:17,15.08839693,0.0001201,53.2156,159.2927,107.358,252.7544,-7.4097e-06,-4.06e-06,0.0,0 STARLINK-5451,1 54771U 22175P   23255.75367986 -.00000406  00000-0 -74097-5 0  9993,2 54771  53.2156 159.2927 0001201 107.3580 252.7544 15.08839693 40613,6917.881,95.438,540.577,538.915,0.0
54771.0,STARLINK-5451,PAYLOAD,2023-09-12 21:16:04,15.08835946,0.0001125,53.2158,158.6977,95.044,265.0681,6.5358e-05,7.52e-06,0.0,0 STARLINK-5451,1 54771U 22175P   23255.88615971  .00000752  00000-0  65358-4 0  9998,2 54771  53.2158 158.6977 0001125  95.0440 265.0681 15.08835946 42793,6917.893,95.438,540.536,538.98,0.0
